{"type": "FeatureCollection", "features": [ {"type": "Feature", "properties": {"norad_id": 38144, "name": "FENGYUN 1C DEB", "group": "fengyun-1c-debris", "lat": -47.756045198615006, "lon": -176.55763695165354, "alt_km": 1168.8103517063173, "timestamp": "2025-12-15T04:01:20.741270+00:00", "meta": {"OBJECT_NAME": "FENGYUN 1C DEB", "OBJECT_ID": "1999-025EQR", "EPOCH": "2025-12-12T07:21:41.538528", "MEAN_MOTION": 13.59024242, "ECCENTRICITY": 0.02903277, "INCLINATION": 98.9688, "RA_OF_ASC_NODE": 170.8072, "ARG_OF_PERICENTER": 192.7812, "MEAN_ANOMALY": 166.5857, "EPHEMERIS_TYPE": 0, "CLASSIFICATION_TYPE": "U", "NORAD_CAT_ID": 38144, "ELEMENT_SET_NO": 999, "REV_AT_EPOCH": 61031, "BSTAR": 0.0024533733, "MEAN_MOTION_DOT": 2.337e-05, "MEAN_MOTION_DDOT": 0}, "tle": {"line1": "1 38144U 99025EQR 25346.30673077  .00002337  00000+0  24534-2 0  9992", "line2": "2 38144  98.9688 170.8072 0290327 192.7812 166.5857 13.59024242610319"}}, "geometry": {"type": "Point", "coordinates": [-176.55763695165354, -47.756045198615006]}}, {"type": "Feature", "properties": {"norad_id": 38146, "name": "FENGYUN 1C DEB", "group": "fengyun-1c-debris", "lat": 25.088608941372804, "lon": 65.53702107206186, "alt_km": 643.4836346323391, "timestamp": "2025-12-15T04:01:20.741281+00:00", "meta": {"OBJECT_NAME": "FENGYUN 1C DEB", "OBJECT_ID": "1999-025EQT", "EPOCH": "2025-12-13T00:02:13.445664", "MEAN_MOTION": 14.59236132, "ECCENTRICITY": 0.02025945, "INCLINATION": 99.4831, "RA_OF_ASC_NODE": 67.5521, "ARG_OF_PERICENTER": 102.1882, "MEAN_ANOMALY": 73.0612, "EPHEMERIS_TYPE": 0, "CLASSIFICATION_TYPE": "U", "NORAD_CAT_ID": 38146, "ELEMENT_SET_NO": 999, "REV_AT_EPOCH": 31883, "BSTAR": 0.0013726133, "MEAN_MOTION_DOT": 8.572e-05, "MEAN_MOTION_DDOT": 0}, "tle": {"line1": "1 38146U 99025EQT 25347.00154451  .00008572  00000+0  13726-2 0  9990", "line2": "2 38146  99.4831  67.5521 0202594 102.1882  73.0612 14.59236132318836"}}, "geometry": {"type": "Point", "coordinates": [65.53702107206186, 25.088608941372804]}}, {"type": "Feature", "properties": {"norad_id": 38147, "name": "FENGYUN 1C DEB", "group": "fengyun-1c-debris", "lat": -59.84430860528723, "lon": 168.3010909355235, "alt_km": 798.8274945919484, "timestamp": "2025-12-15T04:01:20.741291+00:00", "meta": {"OBJECT_NAME": "FENGYUN 1C DEB", "OBJECT_ID": "1999-025EQU", "EPOCH": "2025-12-12T19:13:06.735360", "MEAN_MOTION": 14.23444568, "ECCENTRICITY": 0.00496162, "INCLINATION": 98.5588, "RA_OF_ASC_NODE": 1.0223, "ARG_OF_PERICENTER": 300.0137, "MEAN_ANOMALY": 59.6124, "EPHEMERIS_TYPE": 0, "CLASSIFICATION_TYPE": "U", "NORAD_CAT_ID": 38147, "ELEMENT_SET_NO": 999, "REV_AT_EPOCH": 60388, "BSTAR": 0.00094328854, "MEAN_MOTION_DOT": 2.127e-05, "MEAN_MOTION_DDOT": 0}, "tle": {"line1": "1 38147U 99025EQU 25346.80077240  .00002127  00000+0  94329-3 0  9997", "line2": "2 38147  98.5588   1.0223 0049616 300.0137  59.6124 14.23444568603889"}}, "geometry": {"type": "Point", "coordinates": [168.3010909355235, -59.84430860528723]}}, {"type": "Feature", "properties": {"norad_id": 38149, "name": "FENGYUN 1C DEB", "group": "fengyun-1c-debris", "lat": 43.19816173864937, "lon": -26.6430457673913, "alt_km": 820.6867173113596, "timestamp": "2025-12-15T04:01:20.741301+00:00", "meta": {"OBJECT_NAME": "FENGYUN 1C DEB", "OBJECT_ID": "1999-025EQW", "EPOCH": "2025-12-07T17:18:01.960128", "MEAN_MOTION": 14.25910713, "ECCENTRICITY": 0.00777044, "INCLINATION": 98.3566, "RA_OF_ASC_NODE": 334.1881, "ARG_OF_PERICENTER": 175.9559, "MEAN_ANOMALY": 184.2267, "EPHEMERIS_TYPE": 0, "CLASSIFICATION_TYPE": "U", "NORAD_CAT_ID": 38149, "ELEMENT_SET_NO": 999, "REV_AT_EPOCH": 70416, "BSTAR": 0.00036135678, "MEAN_MOTION_DOT": 8.47e-06, "MEAN_MOTION_DDOT": 0}, "tle": {"line1": "1 38149U 99025EQW 25341.72085602  .00000847  00000+0  36136-3 0  9995", "line2": "2 38149  98.3566 334.1881 0077704 175.9559 184.2267 14.25910713704169"}}, "geometry": {"type": "Point", "coordinates": [-26.6430457673913, 43.19816173864937]}}, {"type": "Feature", "properties": {"norad_id": 38155, "name": "FENGYUN 1C DEB", "group": "fengyun-1c-debris", "lat": -25.479636622756566, "lon": -102.51088985781455, "alt_km": 869.8064814105619, "timestamp": "2025-12-15T04:01:20.741311+00:00", "meta": {"OBJECT_NAME": "FENGYUN 1C DEB", "OBJECT_ID": "1999-025ERC", "EPOCH": "2025-12-09T23:26:42.825120", "MEAN_MOTION": 14.2501054, "ECCENTRICITY": 0.00946971, "INCLINATION": 98.4476, "RA_OF_ASC_NODE": 248.4308, "ARG_OF_PERICENTER": 135.2408, "MEAN_ANOMALY": 225.6463, "EPHEMERIS_TYPE": 0, "CLASSIFICATION_TYPE": "U", "NORAD_CAT_ID": 38155, "ELEMENT_SET_NO": 999, "REV_AT_EPOCH": 63736, "BSTAR": 0.0028448127, "MEAN_MOTION_DOT": 6.943e-05, "MEAN_MOTION_DDOT": 0}, "tle": {"line1": "1 38155U 99025ERC 25343.97688455  .00006943  00000+0  28448-2 0  9995", "line2": "2 38155  98.4476 248.4308 0094697 135.2408 225.6463 14.25010540637364"}}, "geometry": {"type": "Point", "coordinates": [-102.51088985781455, -25.479636622756566]}}, {"type": "Feature", "properties": {"norad_id": 38157, "name": "FENGYUN 1C DEB", "group": "fengyun-1c-debris", "lat": -5.608332630201961, "lon": -102.6846006701019, "alt_km": 895.8538151067514, "timestamp": "2025-12-15T04:01:20.741322+00:00", "meta": {"OBJECT_NAME": "FENGYUN 1C DEB", "OBJECT_ID": "1999-025ERE", "EPOCH": "2025-12-13T04:45:26.447328", "MEAN_MOTION": 14.21739524, "ECCENTRICITY": 0.02741228, "INCLINATION": 99.6561, "RA_OF_ASC_NODE": 254.2014, "ARG_OF_PERICENTER": 113.0668, "MEAN_ANOMALY": 249.9657, "EPHEMERIS_TYPE": 0, "CLASSIFICATION_TYPE": "U", "NORAD_CAT_ID": 38157, "ELEMENT_SET_NO": 999, "REV_AT_EPOCH": 76254, "BSTAR": 0.00095428198, "MEAN_MOTION_DOT": 3.021e-05, "MEAN_MOTION_DDOT": 0}, "tle": {"line1": "1 38157U 99025ERE 25347.19822277  .00003021  00000+0  95428-3 0  9994", "line2": "2 38157  99.6561 254.2014 0274122 113.0668 249.9657 14.21739524762547"}}, "geometry": {"type": "Point", "coordinates": [-102.6846006701019, -5.608332630201961]}}, {"type": "Feature", "properties": {"norad_id": 38159, "name": "FENGYUN 1C DEB", "group": "fengyun-1c-debris", "lat": -79.53950795840217, "lon": -1.8725377657838689, "alt_km": 873.9827017213502, "timestamp": "2025-12-15T04:01:20.741332+00:00", "meta": {"OBJECT_NAME": "FENGYUN 1C DEB", "OBJECT_ID": "1999-025ERG", "EPOCH": "2025-12-04T22:05:20.152032", "MEAN_MOTION": 14.03448484, "ECCENTRICITY": 0.005704, "INCLINATION": 99.3156, "RA_OF_ASC_NODE": 230.39, "ARG_OF_PERICENTER": 2.347, "MEAN_ANOMALY": 357.7952, "EPHEMERIS_TYPE": 0, "CLASSIFICATION_TYPE": "U", "NORAD_CAT_ID": 38159, "ELEMENT_SET_NO": 999, "REV_AT_EPOCH": 83002, "BSTAR": 0.0010527, "MEAN_MOTION_DOT": 1.625e-05, "MEAN_MOTION_DDOT": 0}, "tle": {"line1": "1 38159U 99025ERG 25338.92037213  .00001625  00000+0  10527-2 0  9999", "line2": "2 38159  99.3156 230.3900 0057040   2.3470 357.7952 14.03448484830021"}}, "geometry": {"type": "Point", "coordinates": [-1.8725377657838689, -79.53950795840217]}}, {"type": "Feature", "properties": {"norad_id": 38163, "name": "FENGYUN 1C DEB", "group": "fengyun-1c-debris", "lat": -27.051037185191355, "lon": -158.99407855709342, "alt_km": 830.346577112974, "timestamp": "2025-12-15T04:01:20.741342+00:00", "meta": {"OBJECT_NAME": "FENGYUN 1C DEB", "OBJECT_ID": "1999-025ERL", "EPOCH": "2025-12-14T08:14:45.123648", "MEAN_MOTION": 14.0591951, "ECCENTRICITY": 0.00760344, "INCLINATION": 99.1284, "RA_OF_ASC_NODE": 24.8853, "ARG_OF_PERICENTER": 237.8552, "MEAN_ANOMALY": 121.5222, "EPHEMERIS_TYPE": 0, "CLASSIFICATION_TYPE": "U", "NORAD_CAT_ID": 38163, "ELEMENT_SET_NO": 999, "REV_AT_EPOCH": 24564, "BSTAR": 0.00090398926, "MEAN_MOTION_DOT": 1.473e-05, "MEAN_MOTION_DDOT": 0}, "tle": {"line1": "1 38163U 99025ERL 25348.34357782  .00001473  00000+0  90399-3 0  9994", "line2": "2 38163  99.1284  24.8853 0076034 237.8552 121.5222 14.05919510245649"}}, "geometry": {"type": "Point", "coordinates": [-158.99407855709342, -27.051037185191355]}}, {"type": "Feature", "properties": {"norad_id": 38166, "name": "FENGYUN 1C DEB", "group": "fengyun-1c-debris", "lat": -53.27827177769053, "lon": 104.7268355083486, "alt_km": 796.4585062475644, "timestamp": "2025-12-15T04:01:20.741352+00:00", "meta": {"OBJECT_NAME": "FENGYUN 1C DEB", "OBJECT_ID": "1999-025ERP", "EPOCH": "2025-12-13T00:15:10.598976", "MEAN_MOTION": 14.30953593, "ECCENTRICITY": 0.00523307, "INCLINATION": 99.0775, "RA_OF_ASC_NODE": 90.0996, "ARG_OF_PERICENTER": 44.0708, "MEAN_ANOMALY": 316.4627, "EPHEMERIS_TYPE": 0, "CLASSIFICATION_TYPE": "U", "NORAD_CAT_ID": 38166, "ELEMENT_SET_NO": 999, "REV_AT_EPOCH": 63776, "BSTAR": 0.0038530301, "MEAN_MOTION_DOT": 0.00010248, "MEAN_MOTION_DDOT": 0}, "tle": {"line1": "1 38166U 99025ERP 25347.01053934  .00010248  00000+0  38530-2 0  9990", "line2": "2 38166  99.0775  90.0996 0052330  44.0708 316.4627 14.30953593637762"}}, "geometry": {"type": "Point", "coordinates": [104.7268355083486, -53.27827177769053]}}, {"type": "Feature", "properties": {"norad_id": 38169, "name": "FENGYUN 1C DEB", "group": "fengyun-1c-debris", "lat": 68.19197691749604, "lon": -59.64797649651317, "alt_km": 629.3262356452133, "timestamp": "2025-12-15T04:01:20.741362+00:00", "meta": {"OBJECT_NAME": "FENGYUN 1C DEB", "OBJECT_ID": "1999-025ERS", "EPOCH": "2025-11-22T03:51:43.920000", "MEAN_MOTION": 14.70462609, "ECCENTRICITY": 0.00311315, "INCLINATION": 98.9783, "RA_OF_ASC_NODE": 298.2991, "ARG_OF_PERICENTER": 127.7379, "MEAN_ANOMALY": 232.6652, "EPHEMERIS_TYPE": 0, "CLASSIFICATION_TYPE": "U", "NORAD_CAT_ID": 38169, "ELEMENT_SET_NO": 999, "REV_AT_EPOCH": 60966, "BSTAR": 0.0026738914, "MEAN_MOTION_DOT": 0.00016302, "MEAN_MOTION_DDOT": 0}, "tle": {"line1": "1 38169U 99025ERS 25326.16092500  .00016302  00000+0  26739-2 0  9993", "line2": "2 38169  98.9783 298.2991 0031131 127.7379 232.6652 14.70462609609660"}}, "geometry": {"type": "Point", "coordinates": [-59.64797649651317, 68.19197691749604]}}]}